{"result":"*******************************************************************************
 Revised: April 12, 2021               Jupiter                              599
 
 PHYSICAL DATA (revised 2025-Jan-30):
  Mass x 10^26 (kg)     = 18.9819           Density (g/cm^3)  = 1.3262 +- .0003
  Equat. radius (1 bar) = 71492+-4 km       Polar radius (km)     = 66854+-10
  Vol. Mean Radius (km) = 69911+-6          Flattening            = 0.06487
  Geometric Albedo      = 0.52              Rocky core mass (Mc/M)= 0.0261
  Sid. rot. period (III)= 9h 55m 29.711 s   Sid. rot. rate (rad/s)= 0.00017585
  Mean solar day, hrs   = ~9.9259         
  GM (km^3/s^2)         = 126686531.900     GM 1-sigma (km^3/s^2) =  +- 1.2732
  Equ. grav, ge (m/s^2) = 24.79             Pol. grav, gp (m/s^2) =  28.34
  Vis. magnitude V(1,0) = -9.40
  Vis. mag. (opposition)= -2.70             Obliquity to orbit    =  3.13 deg
  Sidereal orbit period = 11.861982204 y    Sidereal orbit period = 4332.589 d
  Mean daily motion     = 0.0831294 deg/d   Mean orbit speed, km/s= 13.0697
  Atmos. temp. (1 bar)  = 165+-5 K          Escape speed, km/s    =  59.5           
  A_roche(ice)/Rp       =  2.76             Hill's sphere rad. Rp = 740
                                 Perihelion   Aphelion     Mean
  Solar Constant (W/m^2)         56           46           51
  Maximum Planetary IR (W/m^2)   13.7         13.4         13.6
  Minimum Planetary IR (W/m^2)   13.7         13.4         13.6
*******************************************************************************


*******************************************************************************
Ephemeris / API_USER Sat Sep 20 12:30:05 2025 Pasadena, USA      / Horizons
*******************************************************************************
Target body name: Jupiter (599)                   {source: jup365_merged}
Center body name: Sun (10)                        {source: jup365_merged}
Center-site name: BODY CENTER
*******************************************************************************
Start time      : A.D. 2025-Jan-01 00:00:00.0000 TDB
Stop  time      : A.D. 2026-Jan-01 00:00:00.0000 TDB
Step-size       : 60 minutes
*******************************************************************************
Center geodetic : 0.0, 0.0, 0.0                   {E-lon(deg),Lat(deg),Alt(km)}
Center cylindric: 0.0, 0.0, 0.0                   {E-lon(deg),Dxy(km),Dz(km)}
Center radii    : 695700.0, 695700.0, 695700.0 km {Equator_a, b, pole_c}
Output units    : KM-S
Calendar mode   : Mixed Julian/Gregorian
Output type     : GEOMETRIC cartesian states
Output format   : 3 (position, velocity, LT, range, range-rate)
Reference frame : Ecliptic of J2000.0
*******************************************************************************
            JDTDB,            Calendar Date (TDB),                      X,                      Y,                      Z,                     VX,                     VY,                     VZ,                     LT,                     RG,                     RR,
**************************************************************************************************************************************************************************************************************************************************************************
$$SOE
2460679.625000000, A.D. 2025-Jan-04 03:00:00.0000,  1.544838424605402E+08,  7.446101802392131E+08, -6.549373568262249E+06, -1.295625219047235E+01,  3.272884125451014E+00,  2.763576880120768E-01,  2.536737887179165E+03,  7.604948864991685E+08,  5.702618837337848E-01,
2460679.666666667, A.D. 2025-Jan-04 04:00:00.0000,  1.544371994743794E+08,  7.446219613173389E+08, -6.548378664371043E+06, -1.295651980920046E+01,  3.272157125158637E+00,  2.763665931333754E-01,  2.536744735541937E+03,  7.604969395866770E+08,  5.703397953719651E-01,
2460679.708333333, A.D. 2025-Jan-04 05:00:00.0000,  1.543905555053546E+08,  7.446337397540109E+08, -6.547383729551673E+06, -1.295679788575856E+01,  3.271416382718565E+00,  2.763748654774245E-01,  2.536751584748044E+03,  7.604989929270110E+08,  5.704021490368295E-01,
2460679.750000000, A.D. 2025-Jan-04 06:00:00.0000,  1.543439105196369E+08,  7.446455154970587E+08, -6.546388766125113E+06, -1.295708425950838E+01,  3.270660455962749E+00,  2.763824837123610E-01,  2.536758434604445E+03,  7.605010464622986E+08,  5.704479731261595E-01,
2460679.791666667, A.D. 2025-Jan-04 07:00:00.0000,  1.542972644915658E+08,  7.446572884897599E+08, -6.545393776461303E+06, -1.295737656197063E+01,  3.269888263974412E+00,  2.763894421184387E-01,  2.536765284908781E+03,  7.605031001318737E+08,  5.704766910311405E-01,
2460679.833333333, A.D. 2025-Jan-04 08:00:00.0000,  1.542506174042913E+08,  7.446690586721946E+08, -6.544398762922287E+06, -1.295767227803391E+01,  3.269099114784155E+00,  2.763957507238024E-01,  2.536772135454221E+03,  7.605051538737299E+08,  5.704881357926241E-01,
2460679.875000000, A.D. 2025-Jan-04 09:00:00.0000,  1.542039692501774E+08,  7.446808259826735E+08, -6.543403727806181E+06, -1.295796881596138E+01,  3.268292718207675E+00,  2.764014348214332E-01,  2.536778986034389E+03,  7.605072076259973E+08,  5.704825484588467E-01,
2460679.916666667, A.D. 2025-Jan-04 10:00:00.0000,  1.541573200309505E+08,  7.446925903591876E+08, -6.542408673293948E+06, -1.295826357749200E+01,  3.267469186412391E+00,  2.764065340428692E-01,  2.536785836448187E+03,  7.605092613283880E+08,  5.704605644433016E-01,
2460679.958333333, A.D. 2025-Jan-04 11:00:00.0000,  1.541106697576027E+08,  7.447043517408440E+08, -6.541413601400167E+06, -1.295855402372350E+01,  3.266629024201789E+00,  2.764111011070256E-01,  2.536792686504407E+03,  7.605113149235797E+08,  5.704231907018307E-01,
2460680.000000000, A.D. 2025-Jan-04 12:00:00.0000,  1.540640184500686E+08,  7.447161100692463E+08, -6.540418513927788E+06, -1.295883773499508E+01,  3.265773110558586E+00,  2.764152003246860E-01,  2.536799536026017E+03,  7.605133683584991E+08,  5.703717755951305E-01,
2460680.041666667, A.D. 2025-Jan-04 13:00:00.0000,  1.540173661366979E+08,  7.447278652897984E+08, -6.539423412430435E+06, -1.295911246428590E+01,  3.264902672675336E+00,  2.764189059158115E-01,  2.536806384854046E+03,  7.605154215854882E+08,  5.703079727334028E-01,
2460680.083333333, A.D. 2025-Jan-04 14:00:00.0000,  1.539707128535475E+08,  7.447396173529010E+08, -6.538428298179060E+06, -1.295937618417618E+01,  3.264019253502700E+00,  2.764223001834520E-01,  2.536813232851009E+03,  7.605174745633299E+08,  5.702336997982155E-01,
2460680.125000000, A.D. 2025-Jan-04 15:00:00.0000,  1.539240586435155E+08,  7.447513662150214E+08, -6.537433172136724E+06, -1.295962712751667E+01,  3.263124673737612E+00,  2.764254715813568E-01,  2.536820079903810E+03,  7.605195272581193E+08,  5.701510932109896E-01,
2460680.166666667, A.D. 2025-Jan-04 16:00:00.0000,  1.538774035553411E+08,  7.447631118396184E+08, -6.536438034940034E+06, -1.295986382185011E+01,  3.262220989131372E+00,  2.764285127098682E-01,  2.536826925926081E+03,  7.605215796439637E+08,  5.700624594971382E-01,
2460680.208333333, A.D. 2025-Jan-04 17:00:00.0000,  1.538307476424904E+08,  7.447748541979049E+08, -6.535442886887819E+06, -1.296008511747425E+01,  3.261310443998395E+00,  2.764315182743007E-01,  2.536833770859917E+03,  7.605236317035034E+08,  5.699702242267848E-01,
2460680.250000000, A.D. 2025-Jan-04 18:00:00.0000,  1.537840909619547E+08,  7.447865932694392E+08, -6.534447727937341E+06, -1.296029020891553E+01,  3.260395421829342E+00,  2.764345830404265E-01,  2.536840614676992E+03,  7.605256834282461E+08,  5.698768794600152E-01,
2460680.291666667, A.D. 2025-Jan-04 19:00:00.0000,  1.537374335729819E+08,  7.447983290425339E+08, -6.533452557707429E+06, -1.296047864953603E+01,  3.259478393940732E+00,  2.764377998220298E-01,  2.536847457379039E+03,  7.605277348187121E+08,  5.697849306616090E-01,
2460680.333333333, A.D. 2025-Jan-04 20:00:00.0000,  1.536907755357700E+08,  7.448100615144777E+08, -6.532457375489324E+06, -1.296065035903284E+01,  3.258561867113700E+00,  2.764412575351005E-01,  2.536854298997693E+03,  7.605297858843855E+08,  5.696968440630708E-01,
2460680.375000000, A.D. 2025-Jan-04 21:00:00.0000,  1.536441169101451E+08,  7.448217906915690E+08, -6.531462180263966E+06, -1.296080562369550E+01,  3.257648331178724E+00,  2.764450393519982E-01,  2.536861139593714E+03,  7.605318366434805E+08,  5.696149954322435E-01,
2460680.416666667, A.D. 2025-Jan-04 22:00:00.0000,  1.535974577542520E+08,  7.448335165889615E+08, -6.530466970725775E+06, -1.296094508944137E+01,  3.256740207485818E+00,  2.764492209866796E-01,  2.536867979255599E+03,  7.605338871225290E+08,  5.695416211627058E-01,
2460680.458333333, A.D. 2025-Jan-04 23:00:00.0000,  1.535507981232830E+08,  7.448452392303280E+08, -6.529471745312631E+06, -1.296106974782353E+01,  3.255839799160016E+00,  2.764538691390648E-01,  2.536874818097635E+03,  7.605359373557930E+08,  5.694787725212814E-01,
2460680.500000000, A.D. 2025-Jan-05 00:00:00.0000,  1.535041380682686E+08,  7.448569586473477E+08, -6.528476502240092E+06, -1.296118091537522E+01,  3.254949243981842E+00,  2.764590401229932E-01,  2.536881656257416E+03,  7.605379873845218E+08,  5.694282737990308E-01,
2460680.541666667, A.D. 2025-Jan-05 01:00:00.0000,  1.534574776349543E+08,  7.448686748790327E+08, -6.527481239542127E+06, -1.296128020679876E+01,  3.254070470656557E+00,  2.764647786983010E-01,  2.536888493892892E+03,  7.605400372560680E+08,  5.693916850081523E-01,
2460680.583333333, A.D. 2025-Jan-05 02:00:00.0000,  1.534108168627836E+08,  7.448803879709020E+08, -6.526485955113202E+06, -1.296136950261175E+01,  3.253205159150308E+00,  2.764711171235636E-01,  2.536895331178995E+03,  7.605420870228751E+08,  5.693702696624815E-01,
2460680.625000000, A.D. 2025-Jan-05 03:00:00.0000,  1.533641557840068E+08,  7.448920979740207E+08, -6.525490646755487E+06, -1.296145091192402E+01,  3.252354705682915E+00,  2.764780744423487E-01,  2.536902168303913E+03,  7.605441367413597E+08,  5.693649680810130E-01,
